[{"OBJECT_NAME":"GNOMES-1","OBJECT_ID":"2020-059B","EPOCH":"2026-03-09T12:56:23.998560","MEAN_MOTION":14.99848479,"ECCENTRICITY":0.00054513,"INCLINATION":97.8057,"RA_OF_ASC_NODE":278.776,"ARG_OF_PERICENTER":357.8604,"MEAN_ANOMALY":2.2595,"EPHEMERIS_TYPE":0,"CLASSIFICATION_TYPE":"U","NORAD_CAT_ID":46266,"ELEMENT_SET_NO":999,"REV_AT_EPOCH":30065,"BSTAR":0.00033421547,"MEAN_MOTION_DOT":4.08e-5,"MEAN_MOTION_DDOT":0},{"OBJECT_NAME":"STARLINK-5642","OBJECT_ID":"2023-014AR","EPOCH":"2026-03-09T12:13:30.893376","MEAN_MOTION":14.98330981,"ECCENTRICITY":0.0002864,"INCLINATION":69.9989,"RA_OF_ASC_NODE":104.8346,"ARG_OF_PERICENTER":270.1716,"MEAN_ANOMALY":89.9115,"EPHEMERIS_TYPE":0,"CLASSIFICATION_TYPE":"U","NORAD_CAT_ID":55430,"ELEMENT_SET_NO":999,"REV_AT_EPOCH":17104,"BSTAR":-1.6057565e-5,"MEAN_MOTION_DOT":-2.85e-6,"MEAN_MOTION_DDOT":0}]
